COMMENT,ORIGINATOR,NORAD_CAT_ID,OBJECT_NAME,OBJECT_TYPE,CLASSIFICATION_TYPE,INTLDES,EPOCH,EPOCH_MICROSECONDS,MEAN_MOTION,ECCENTRICITY,INCLINATION,RA_OF_ASC_NODE,ARG_OF_PERICENTER,MEAN_ANOMALY,EPHEMERIS_TYPE,ELEMENT_SET_NO,REV_AT_EPOCH,BSTAR,MEAN_MOTION_DOT,MEAN_MOTION_DDOT,FILE,TLE_LINE0,TLE_LINE1,TLE_LINE2,OBJECT_ID,OBJECT_NUMBER,SEMIMAJOR_AXIS,PERIOD,APOGEE,PERIGEE,DECAYED
GENERATED VIA SPACETRACK.ORG API,18 SPCS,43162,SBIRS GEO 3 (USA 282),PAYLOAD,U,18009A,2024-03-18 11:49:42,580416,1.00272467,0.0001947,2.471,332.3841,16.4113,205.7334,0,999,2261,0,0.00000116,0,4231680,0 SBIRS GEO 3 (USA 282),1 43162U 18009A   24078.49285394  .00000116  00000-0  00000-0 0  9997,2 43162   2.4710 332.3841 0001947  16.4113 205.7334  1.00272467 22617,2018-009A,43162,42164.541,1436.087,35794.615,35778.196,0
GENERATED VIA SPACETRACK.ORG API,18 SPCS,25001,TITAN 3C TRANSTAGE DEB,DEBRIS,U,68081H,2024-03-18 11:42:42,768000,1.01691196,0.0069877,1.024,348.4958,39.2277,123.7598,0,999,10997,0,0.00000037,0,4231680,0 TITAN 3C TRANSTAGE DEB,1 25001U 68081H   24078.48799500  .00000037  00000-0  00000-0 0  9994,2 25001   1.0240 348.4958 0069877  39.2277 123.7598  1.01691196109970,1968-081H,25001,41771.455,1416.052,35685.207,35101.434,0
GENERATED VIA SPACETRACK.ORG API,18 SPCS,23712,USA 115,PAYLOAD,U,95060A,2024-03-18 10:36:42,706080,1.00272582,0.0003332,13.7679,9.6756,324.434,241.4777,0,999,2465,0,-0.00000027,0,4231680,0 USA 115,1 23712U 95060A   24078.44216095 -.00000027  00000-0  00000-0 0  9997,2 23712  13.7679   9.6756 0003332 324.4340 241.4777  1.00272582 24650,1995-060A,23712,42164.509,1436.085,35800.423,35772.324,0
GENERATED VIA SPACETRACK.ORG API,18 SPCS,22988,USA 99,PAYLOAD,U,94009A,2024-03-18 09:24:42,672384,1.00270874,0.0003146,16.37,36.3983,311.0803,240.1065,0,999,2473,0,-0.00000205,0,4231680,0 USA 99,1 22988U 94009A   24078.39216056 -.00000205  00000-0  00000-0 0  9992,2 22988  16.3700  36.3983 0003146 311.0803 240.1065  1.00270874 24733,1994-009A,22988,42164.987,1436.110,35800.117,35773.587,0
GENERATED VIA SPACETRACK.ORG API,18 SPCS,42915,TDRS 13,PAYLOAD,U,17047A,2024-03-18 09:20:10,711968,1.00272192,0.0014219,3.7168,342.7596,105.5497,216.6299,0,999,2414,0,-0.00000111,0,4231509,0 TDRS 13,1 42915U 17047A   24078.38901287 -.00000111  00000-0  00000+0 0  9992,2 42915   3.7168 342.7596 0014219 105.5497 216.6299  1.00272192 24142,2017-047A,42915,42164.618,1436.091,35846.437,35726.529,0
GENERATED VIA SPACETRACK.ORG API,18 SPCS,42915,TDRS 13,PAYLOAD,U,17047A,2024-03-18 09:20:10,711968,1.00272192,0.0014219,3.7168,342.7596,105.5497,216.6299,0,999,2411,0,-0.00000111,0,4231680,0 TDRS 13,1 42915U 17047A   24078.38901287 -.00000111  00000-0  00000-0 0  9993,2 42915   3.7168 342.7596 0014219 105.5497 216.6299  1.00272192 24119,2017-047A,42915,42164.618,1436.091,35846.437,35726.529,0
GENERATED VIA SPACETRACK.ORG API,18 SPCS,42749,ECHOSTAR 21,PAYLOAD,U,17032A,2024-03-18 07:43:26,234688,1.00271892,0.0002482,2.6962,317.9474,27.293,317.2003,0,999,2487,0,0.00000052,0,4231680,0 ECHOSTAR 21,1 42749U 17032A   24078.32183142  .00000052  00000-0  00000-0 0  9991,2 42749   2.6962 317.9474 0002482  27.2930 317.2003  1.00271892 24874,2017-032A,42749,42164.702,1436.095,35797.032,35776.102,0
GENERATED VIA SPACETRACK.ORG API,18 SPCS,38699,TITAN 3C TRANSTAGE DEB,DEBRIS,U,68081Z,2024-03-18 06:49:48,207936,1.00849535,0.0098924,1.3476,340.0808,344.2986,136.7187,0,999,4359,0,0.000001,0,4231680,0 TITAN 3C TRANSTAGE DEB,1 38699U 68081Z   24078.28458574  .00000100  00000-0  00000-0 0  9993,2 38699   1.3476 340.0808 0098924 344.2986 136.7187  1.00849535 43598,1968-081Z,38699,42003.541,1427.870,36040.922,35209.891,0
GENERATED VIA SPACETRACK.ORG API,18 SPCS,33436,ASTRA 1M,PAYLOAD,U,08057A,2024-03-18 06:02:48,677856,1.00270583,0.0001464,0.016,130.5147,267.7631,247.8892,0,999,5624,0,0.00000106,0,4231299,0 ASTRA 1M,1 33436U 08057A   24078.25195229  .00000106  00000-0  00000+0 0  9991,2 33436   0.0160 130.5147 0001464 267.7631 247.8892  1.00270583 56249,2008-057A,33436,42165.069,1436.114,35793.107,35780.761,0
GENERATED VIA SPACETRACK.ORG API,18 SPCS,38697,TITAN 3C TRANSTAGE DEB *,DEBRIS,U,68081X,2024-03-18 05:58:53,231808,1.01473746,0.0494343,3.7763,34.5467,7.6544,353.1778,0,999,6653,0,-0.00000302,0,4232179,0 TITAN 3C TRANSTAGE DEB *,1 38697U 68081X   24078.24922722 -.00000302  00000-0  00000-0 0  9993,2 38697   3.7763  34.5467 0494343   7.6544 353.1778  1.01473746 66530,1968-081X,38697,41831.109,1419.086,37520.866,33385.082,0
GENERATED VIA SPACETRACK.ORG API,18 SPCS,38697,TITAN 3C TRANSTAGE DEB *,DEBRIS,U,68081X,2024-03-18 05:58:53,231808,1.01473746,0.0494343,3.7763,34.5467,7.6544,353.1778,0,999,6652,0,-0.00000301,0,4232777,0 TITAN 3C TRANSTAGE DEB *,1 38697U 68081X   24078.24922722 -.00000301  00000-0  00000+0 0  9991,2 38697   3.7763  34.5467 0494343   7.6544 353.1778  1.01473746 66529,1968-081X,38697,41831.109,1419.086,37520.866,33385.082,0
GENERATED VIA SPACETRACK.ORG API,18 SPCS,38697,TITAN 3C TRANSTAGE DEB *,DEBRIS,U,68081X,2024-03-18 05:58:47,932032,1.01473039,0.0490231,3.7762,34.5458,7.4016,353.4014,0,999,6653,0,-0.00000302,0,4231680,0 TITAN 3C TRANSTAGE DEB *,1 38697U 68081X   24078.24916588 -.00000302  00000-0  00000-0 0  9996,2 38697   3.7762  34.5458 0490231   7.4016 353.4014  1.01473039 66534,1968-081X,38697,41831.303,1419.096,37503.869,33402.468,0
GENERATED VIA SPACETRACK.ORG API,18 SPCS,38697,TITAN 3C TRANSTAGE DEB *,DEBRIS,U,68081X,2024-03-18 05:58:47,932032,1.01473039,0.0490231,3.7762,34.5458,7.4016,353.4014,0,999,6652,0,-0.00000301,0,4232125,0 TITAN 3C TRANSTAGE DEB *,1 38697U 68081X   24078.24916588 -.00000301  00000-0  00000+0 0  9994,2 38697   3.7762  34.5458 0490231   7.4016 353.4014  1.01473039 66523,1968-081X,38697,41831.303,1419.096,37503.869,33402.468,0
GENERATED VIA SPACETRACK.ORG API,18 SPCS,41384,IRNSS 1F,PAYLOAD,U,16015A,2024-03-18 04:23:33,824832,1.00272449,0.0019483,3.3565,121.2896,191.0863,322.1798,0,999,2942,0,0.00000145,0,4230942,0 IRNSS 1F,1 41384U 16015A   24078.18303038  .00000145  00000-0  00000+0 0  9999,2 41384   3.3565 121.2896 0019483 191.0863 322.1798  1.00272449 29424,2016-015A,41384,42164.546,1436.087,35868.560,35704.262,0
GENERATED VIA SPACETRACK.ORG API,18 SPCS,44479,AMOS 17,PAYLOAD,U,19050A,2024-03-18 04:19:10,667712,1.00270685,0.0001639,0.0193,112.9451,254.3794,250.6532,0,999,1694,0,0.00000095,0,4231116,0 AMOS 17,1 44479U 19050A   24078.17998458  .00000095  00000-0  00000+0 0  9998,2 44479   0.0193 112.9451 0001639 254.3794 250.6532  1.00270685 16941,2019-050A,44479,42165.040,1436.113,35793.816,35779.994,0
GENERATED VIA SPACETRACK.ORG API,18 SPCS,44457,COSMOS 2539,PAYLOAD,U,19048A,2024-03-18 04:17:40,442784,1.00270865,0.0000487,0.0166,125.662,205.034,281.9147,0,999,1699,0,0.00000067,0,4230923,0 COSMOS 2539,1 44457U 19048A   24078.17894031  .00000067  00000-0  00000+0 0  9992,2 44457   0.0166 125.6620 0000487 205.0340 281.9147  1.00270865 16990,2019-048A,44457,42164.990,1436.110,35788.908,35784.801,0
GENERATED VIA SPACETRACK.ORG API,18 SPCS,8832,TITAN 3C TRANSTAGE DEB,DEBRIS,U,76023J,2024-03-18 04:11:16,985760,0.9826162,0.0137798,20.1334,53.0916,73.7593,99.8833,0,999,10952,0,-0.00000298,0,4230742,0 TITAN 3C TRANSTAGE DEB,1  8832U 76023J   24078.17450215 -.00000298  00000-0  00000+0 0  9994,2  8832  20.1334  53.0916 0137798  73.7593  99.8833  0.98261620109520,1976-023J,8832,42737.839,1465.476,36948.623,35770.785,0
GENERATED VIA SPACETRACK.ORG API,18 SPCS,38704,TITAN 3C TRANSTAGE DEB,DEBRIS,U,68081AE,2024-03-18 03:51:23,832864,1.02195957,0.0210397,2.2178,62.2206,214.7044,144.3418,0,999,6761,0,0.00000004,0,4231680,0 TITAN 3C TRANSTAGE DEB,1 38704U 68081AE  24078.16069251  .00000004  00000-0  00000-0 0  9990,2 38704   2.2178  62.2206 0210397 214.7044 144.3418  1.02195957 67610,1968-081AE,38704,41633.798,1409.058,36131.626,34379.700,0
GENERATED VIA SPACETRACK.ORG API,18 SPCS,33373,NIMIQ 4,PAYLOAD,U,08044A,2024-03-18 03:50:42,691776,1.00272092,0.0001949,0.0084,192.839,158.0619,160.9562,0,999,5660,0,-0.00000234,0,4230888,0 NIMIQ 4,1 33373U 08044A   24078.16021634 -.00000234  00000-0  00000+0 0  9998,2 33373   0.0084 192.8390 0001949 158.0619 160.9562  1.00272092 56607,2008-044A,33373,42164.646,1436.093,35794.729,35778.293,0
GENERATED VIA SPACETRACK.ORG API,18 SPCS,25967,UFO 10 (USA 146),PAYLOAD,U,99063A,2024-03-18 03:26:42,728640,1.00273972,0.000308,9.4162,31.0254,285.6274,248.3833,0,999,8911,0,-0.00000197,0,4231680,0 UFO 10 (USA 146),1 25967U 99063A   24078.14355010 -.00000197  00000-0  00000-0 0  9994,2 25967   9.4162  31.0254 0003080 285.6274 248.3833  1.00273972 89114,1999-063A,25967,42164.119,1436.066,35798.970,35772.997,0
GENERATED VIA SPACETRACK.ORG API,18 SPCS,38699,TITAN 3C TRANSTAGE DEB,DEBRIS,U,68081Z,2024-03-18 03:23:39,861312,1.00849534,0.0098918,1.3477,340.066,344.3175,84.7427,0,999,5185,0,0.000001,0,4231038,0 TITAN 3C TRANSTAGE DEB,1 38699U 68081Z   24078.14143358  .00000100  00000-0  00000+0 0  9998,2 38699   1.3477 340.0660 0098918 344.3175  84.7427  1.00849534 51855,1968-081Z,38699,42003.542,1427.870,36040.897,35209.916,0
GENERATED VIA SPACETRACK.ORG API,18 SPCS,44066,S5 DEB,DEBRIS,U,19009E,2024-03-17 23:42:16,403040,0.98983358,0.0004406,4.4723,80.5929,202.9217,157.2809,0,999,1823,0,-0.0000003,0,4231680,0 S5 DEB,1 44066U 19009E   24077.98768985 -.00000030  00000-0  00000-0 0  9993,2 44066   4.4723  80.5929 0004406 202.9217 157.2809  0.98983358 18231,2019-009E,44066,42529.837,1454.790,36170.441,36132.963,0
GENERATED VIA SPACETRACK.ORG API,18 SPCS,43454,TITAN 3C TRANSTAGE DEB,DEBRIS,U,69013M,2024-03-17 23:37:12,326016,1.02846715,0.0561382,1.44,246.0537,213.3684,142.1271,0,999,2218,0,-0.00000321,0,4231680,0 TITAN 3C TRANSTAGE DEB,1 43454U 69013M   24077.98417044 -.00000321  00000-0  00000-0 0  9993,2 43454   1.4400 246.0537 0561382 213.3684 142.1271  1.02846715 22185,1969-013M,43454,41457.988,1400.142,37407.230,32752.476,0
